XRISM                   
1 57800U 23137A   26071.67829284  .00005487  00000+0  31010-3 0  9999
2 57800  31.0010 264.3329 0007922  68.7523 291.3961 15.11536334138248
ACS3                    
1 59588U 24077B   26071.59399837  .00024690  00000+0  19768-1 0  9996
2 59588  97.2052  12.0527 0062157  69.5403 291.2419 13.89752308 94600
SZ-21 MODULE            
1 66515U 25246C   26071.68367939  .00040419  00000+0  34395-3 0  9993
2 66515  41.4730 184.9262 0001119 307.7188  52.3552 15.68803443 18544
