CCSDS_OMM_VERS = 2.0
CREATION_DATE  = 
ORIGINATOR     = 

OBJECT_NAME    = XRISM
OBJECT_ID      = 2023-137A
CENTER_NAME    = EARTH
REF_FRAME      = TEME
TIME_SYSTEM    = UTC
MEAN_ELEMENT_THEORY = SGP/SGP4

EPOCH          = 2026-03-12T16:16:44.501376
MEAN_MOTION    = 15.11536334
ECCENTRICITY   = .0007922
INCLINATION    = 31.0010
RA_OF_ASC_NODE = 264.3329
ARG_OF_PERICENTER = 68.7523
MEAN_ANOMALY   = 291.3961

EPHEMERIS_TYPE = 0
CLASSIFICATION_TYPE = U
NORAD_CAT_ID   = 57800
ELEMENT_SET_NO = 999
REV_AT_EPOCH   = 13824
BSTAR          = .3101E-3
MEAN_MOTION_DOT = .5487E-4
MEAN_MOTION_DDOT = 0

CCSDS_OMM_VERS = 2.0
CREATION_DATE  = 
ORIGINATOR     = 

OBJECT_NAME    = ACS3
OBJECT_ID      = 2024-077B
CENTER_NAME    = EARTH
REF_FRAME      = TEME
TIME_SYSTEM    = UTC
MEAN_ELEMENT_THEORY = SGP/SGP4

EPOCH          = 2026-03-12T14:15:21.459168
MEAN_MOTION    = 13.89752308
ECCENTRICITY   = .0062157
INCLINATION    = 97.2052
RA_OF_ASC_NODE = 12.0527
ARG_OF_PERICENTER = 69.5403
MEAN_ANOMALY   = 291.2419

EPHEMERIS_TYPE = 0
CLASSIFICATION_TYPE = U
NORAD_CAT_ID   = 59588
ELEMENT_SET_NO = 999
REV_AT_EPOCH   = 9460
BSTAR          = .19768E-1
MEAN_MOTION_DOT = .2469E-3
MEAN_MOTION_DDOT = 0

CCSDS_OMM_VERS = 2.0
CREATION_DATE  = 
ORIGINATOR     = 

OBJECT_NAME    = SZ-21 MODULE
OBJECT_ID      = 2025-246C
CENTER_NAME    = EARTH
REF_FRAME      = TEME
TIME_SYSTEM    = UTC
MEAN_ELEMENT_THEORY = SGP/SGP4

EPOCH          = 2026-03-12T16:24:29.899296
MEAN_MOTION    = 15.68803443
ECCENTRICITY   = .0001119
INCLINATION    = 41.4730
RA_OF_ASC_NODE = 184.9262
ARG_OF_PERICENTER = 307.7188
MEAN_ANOMALY   = 52.3552

EPHEMERIS_TYPE = 0
CLASSIFICATION_TYPE = U
NORAD_CAT_ID   = 66515
ELEMENT_SET_NO = 999
REV_AT_EPOCH   = 1854
BSTAR          = .34395E-3
MEAN_MOTION_DOT = .40419E-3
MEAN_MOTION_DDOT = 0

